{
  "norad_id": 62817,
  "name": "STARLINK-32824",
  "history": [
    {
      "epoch": "2026-03-28T15:31:34.732128",
      "apogee_km": 476.0177346259652,
      "perigee_km": 474.3688233608391,
      "latitude_deg": 45.33611102088383,
      "longitude_deg": 163.80525791994296,
      "semi_major_axis_km": 6853.330278993401,
      "eccentricity": 0.0001203,
      "inclination_deg": 53.1592,
      "raan_deg": 221.339,
      "arg_perigee_deg": 85.9529,
      "mean_anomaly_deg": 274.1609,
      "mean_motion_rev_day": 15.30207298
    }
  ]
}