{"fetched_at":"2026-03-29T16:36:15Z","count":15609,"tles":[{"name":"STARLINK-32824","line1":"1 62817U 25018M   26087.64692977  .00020475  00000+0  70136-3 0  9990","line2":"2 62817  53.1592 221.3390 0001203  85.9529 274.1609 15.30207298 67026","category":"Starlink"}]}